{"type":"FeatureCollection","name":"Swiss school landscapes derived from Landscape typology of Switzerland","source":"Federal Office for Spatial Development ARE, ch.are.landschaftstypen, 2010-08-31","features":[{"type":"Feature","properties":{"id":"jura","name":"Jura","nameEn":"Jura","percent":10,"color":"#f0a35b","descriptionDe":"Mittelhohes Gebirge aus langgestreckten und gewölbten Hügelketten. Es verläuft von Basel entlang der Landesgrenze bis nach Genf. Die Hänge dieser Täler sind bewaldet.","descriptionEn":"A medium-height mountain range of long, rounded ridges. It runs from Basel along the national border to Geneva, with wooded valley slopes."},"geometry":{"type":"MultiPolygon","coordinates":[[[[6.307341,46.532097],[6.268412,46.500775],[6.244421,46.49795],[6.206106,46.468138],[6.199686,46.457322],[6.208826,46.445981],[6.190227,46.436969],[6.192378,46.423041],[6.15147,46.402704],[6.137773,46.38651],[6.097619,46.409051],[6.063837,46.416366],[6.08642,46.443902],[6.072812,46.46545],[6.096898,46.481315],[6.112552,46.509587],[6.137969,46.531023],[6.143756,46.527787],[6.156663,46.545315],[6.110521,46.576481],[6.179054,46.615812],[6.282031,46.69072],[6.371711,46.724134],[6.367843,46.729208],[6.384225,46.731133],[6.395208,46.748444],[6.430336,46.756811],[6.452323,46.774203],[6.458447,46.78883],[6.434829,46.801624],[6.431026,46.812412],[6.440816,46.8158],[6.443125,46.832732],[6.460063,46.851346],[6.464564,46.890292],[6.432588,46.928698],[6.495773,46.973809],[6.504825,46.965669],[6.593071,46.991839],[6.617986,46.991661],[6.640365,47.002838],[6.659377,47.027392],[6.696626,47.037328],[6.719071,47.051171],[6.691613,47.066666],[6.706424,47.074318],[6.702633,47.081967],[6.72623,47.092011],[6.741192,47.090978],[6.74053,47.109523],[6.805986,47.130754],[6.849795,47.156326],[6.858211,47.165733],[6.840993,47.171213],[6.873891,47.185384],[6.88048,47.200531],[6.955483,47.243004],[6.940817,47.286383],[6.996412,47.295709],[7.015807,47.313299],[7.010008,47.324524],[7.045639,47.326489],[7.057009,47.334376],[7.062397,47.344041],[7.049861,47.347725],[7.049914,47.361405],[7.015502,47.372923],[6.974627,47.360136],[6.924073,47.355188],[6.902747,47.359568],[6.879352,47.35259],[6.883635,47.372868],[6.913443,47.388086],[6.913229,47.404605],[6.938438,47.406094],[6.9403,47.433335],[6.963738,47.435785],[6.970391,47.447043],[7.002153,47.454165],[6.982991,47.494549],[7.021531,47.504465],[7.074879,47.488189],[7.127964,47.503897],[7.1623,47.490024],[7.201044,47.494285],[7.177527,47.468055],[7.170245,47.442986],[7.195814,47.435397],[7.233468,47.438625],[7.246546,47.420348],[7.281857,47.434784],[7.330239,47.441762],[7.354768,47.433975],[7.403116,47.435485],[7.430192,47.459621],[7.455684,47.470683],[7.429419,47.482915],[7.42077,47.480351],[7.432309,47.496452],[7.475786,47.48014],[7.502465,47.490804],[7.51034,47.505955],[7.497921,47.521206],[7.502321,47.514863],[7.522233,47.514221],[7.531218,47.5282],[7.519383,47.534711],[7.502337,47.528426],[7.499203,47.540138],[7.557366,47.565014],[7.566472,47.57773],[7.584741,47.575569],[7.589101,47.589908],[7.604799,47.585012],[7.60495,47.577925],[7.619169,47.576897],[7.645655,47.596909],[7.675124,47.591969],[7.69374,47.60077],[7.67174,47.587281],[7.689719,47.571504],[7.686037,47.565639],[7.683605,47.571247],[7.677391,47.563723],[7.633998,47.561269],[7.668194,47.535699],[7.691021,47.532369],[7.7959,47.557393],[7.822519,47.58786],[7.841352,47.582022],[7.867725,47.588672],[7.893499,47.58682],[7.910549,47.571211],[7.911723,47.550817],[7.942652,47.543907],[7.959627,47.557919],[8.021555,47.550362],[8.059723,47.563747],[8.090205,47.55787],[8.109786,47.582561],[8.136056,47.583776],[8.148061,47.595769],[8.164894,47.594237],[8.20531,47.621028],[8.219766,47.617503],[8.226912,47.605021],[8.258419,47.615406],[8.264129,47.609506],[8.293062,47.60863],[8.297401,47.589689],[8.329756,47.570929],[8.383666,47.565513],[8.398537,47.577222],[8.432794,47.566559],[8.494231,47.582233],[8.511525,47.579191],[8.477497,47.575868],[8.43515,47.561156],[8.400343,47.575112],[8.382671,47.564044],[8.322118,47.571],[8.317692,47.56391],[8.302915,47.566011],[8.29652,47.554005],[8.259509,47.566008],[8.231058,47.559357],[8.222572,47.526006],[8.210474,47.515616],[8.16137,47.513818],[8.143527,47.496748],[8.16268,47.491018],[8.154601,47.475944],[8.16387,47.466537],[8.190298,47.485652],[8.222394,47.496434],[8.232852,47.491918],[8.227166,47.485959],[8.239151,47.485105],[8.23877,47.498378],[8.251373,47.506619],[8.317823,47.483794],[8.379343,47.492689],[8.449138,47.483367],[8.424109,47.470302],[8.406898,47.475382],[8.344112,47.472955],[8.348454,47.458201],[8.331925,47.439566],[8.301785,47.458946],[8.303006,47.467019],[8.267918,47.456],[8.243935,47.462471],[8.232872,47.475146],[8.216111,47.470702],[8.219226,47.453546],[8.189941,47.449572],[8.201184,47.429868],[8.216697,47.425889],[8.215147,47.419012],[8.169432,47.419682],[8.166952,47.430206],[8.162675,47.417254],[8.150798,47.411723],[8.080346,47.403007],[8.095454,47.381588],[8.086309,47.372742],[8.111001,47.364959],[8.111684,47.351034],[8.103462,47.349153],[8.073861,47.366036],[8.071553,47.380041],[8.05391,47.377196],[8.037518,47.385193],[8.017448,47.380218],[8.003322,47.348596],[7.982586,47.342209],[7.985175,47.332172],[7.937842,47.317995],[7.959304,47.288856],[7.952235,47.282918],[7.963574,47.276973],[7.924182,47.273574],[7.919477,47.279768],[7.930905,47.290065],[7.917441,47.304218],[7.86809,47.294444],[7.872194,47.312593],[7.847251,47.315141],[7.826881,47.333159],[7.776121,47.319976],[7.734377,47.294579],[7.714403,47.29073],[7.704435,47.295716],[7.706369,47.286826],[7.683058,47.268548],[7.640525,47.25276],[7.58989,47.250307],[7.54856,47.238122],[7.534098,47.222848],[7.512142,47.226419],[7.502839,47.219134],[7.486097,47.219836],[7.481432,47.211522],[7.445894,47.21234],[7.384923,47.202404],[7.357683,47.181327],[7.259508,47.153905],[7.241608,47.156055],[7.227433,47.144946],[7.235749,47.141354],[7.229472,47.133671],[7.10793,47.065428],[7.035301,47.05224],[6.993213,47.01842],[7.034599,47.010396],[7.028369,47.005047],[7.048237,46.989246],[7.026864,46.96295],[6.898611,46.895443],[6.857877,46.859703],[6.806825,46.836887],[6.760754,46.804117],[6.717702,46.806157],[6.65343,46.784793],[6.636259,46.795408],[6.636763,46.803456],[6.73875,46.856931],[6.715414,46.860485],[6.678569,46.843184],[6.585392,46.831219],[6.527685,46.79255],[6.51906,46.793278],[6.477005,46.730788],[6.511719,46.727137],[6.493669,46.721591],[6.47414,46.693907],[6.500709,46.67631],[6.507363,46.663383],[6.442093,46.652215],[6.440695,46.641092],[6.423888,46.635602],[6.411025,46.62112],[6.40044,46.624709],[6.386759,46.619489],[6.372226,46.602432],[6.356491,46.606727],[6.355866,46.58098],[6.312344,46.550764],[6.301373,46.538991],[6.307341,46.532097]],[[7.080627,47.339902],[7.08077,47.33997],[7.082433,47.340938],[7.080627,47.339902]],[[6.241145,46.616146],[6.241149,46.616157],[6.239134,46.614693],[6.241145,46.616146]],[[6.240857,46.615297],[6.241145,46.616146],[6.241145,46.616146],[6.240857,46.615297]],[[8.03456,47.413943],[8.010043,47.407891],[7.990869,47.411587],[7.995098,47.403452],[7.940554,47.389965],[7.933227,47.368838],[7.979493,47.370754],[8.018822,47.386531],[8.045465,47.404869],[8.044749,47.412135],[8.03456,47.413943]]],[[[8.616348,47.693211],[8.588304,47.674155],[8.593865,47.667206],[8.577725,47.661537],[8.56091,47.670335],[8.539989,47.665094],[8.541614,47.656804],[8.533425,47.663177],[8.526913,47.660477],[8.53187,47.645833],[8.493256,47.646999],[8.492427,47.642105],[8.476387,47.650119],[8.472898,47.638431],[8.465878,47.6573],[8.445112,47.653857],[8.423563,47.666841],[8.41228,47.666357],[8.405945,47.67528],[8.420883,47.683925],[8.404692,47.698046],[8.417041,47.710291],[8.454919,47.722468],[8.450792,47.740195],[8.4849,47.771371],[8.510318,47.776159],[8.520369,47.77049],[8.5265,47.778032],[8.552989,47.784527],[8.562883,47.777885],[8.577308,47.781684],[8.574944,47.789666],[8.561994,47.792625],[8.568071,47.808458],[8.575156,47.799575],[8.60086,47.803009],[8.618553,47.798452],[8.615094,47.783961],[8.627849,47.759476],[8.644471,47.764279],[8.650086,47.776084],[8.676804,47.768055],[8.696197,47.745014],[8.688873,47.736229],[8.642645,47.723265],[8.637025,47.713809],[8.620786,47.714129],[8.611669,47.7053],[8.616348,47.693211]]]]}},{"type":"Feature","properties":{"id":"mittelland","name":"Mittelland","nameEn":"Swiss Plateau","percent":30,"color":"#ef6f7a","descriptionDe":"Nur leicht hügelige Fläche mit fruchtbaren Ebenen zwischen Jura und Alpen. Hier liegen die grossen Siedlungen und die wichtigsten Verkehrswege zwischen Ost und West.","descriptionEn":"A gently rolling area with fertile plains between the Jura and the Alps. It contains the major settlements and the main east–west transport routes."},"geometry":{"type":"MultiPolygon","coordinates":[[[[6.035883,46.136098],[5.994076,46.144548],[5.956843,46.128774],[5.982005,46.173315],[5.987973,46.170749],[5.994878,46.181908],[5.963767,46.197008],[5.97334,46.202612],[5.973356,46.213732],[5.992784,46.215232],[5.990186,46.221734],[6.001522,46.22052],[6.033675,46.238566],[6.046111,46.231408],[6.060411,46.245021],[6.073025,46.241364],[6.088056,46.247139],[6.10145,46.23766],[6.124468,46.251267],[6.10239,46.284953],[6.119599,46.294345],[6.119792,46.312587],[6.137829,46.338777],[6.170126,46.367047],[6.140065,46.390086],[6.192378,46.423041],[6.190227,46.436969],[6.208826,46.445981],[6.199686,46.457322],[6.206106,46.468138],[6.244421,46.49795],[6.268412,46.500775],[6.307341,46.532097],[6.301373,46.538991],[6.312344,46.550764],[6.361023,46.588363],[6.356491,46.606727],[6.372226,46.602432],[6.386759,46.619489],[6.40044,46.624709],[6.411025,46.62112],[6.423888,46.635602],[6.440695,46.641092],[6.442093,46.652215],[6.507363,46.663383],[6.500709,46.67631],[6.47414,46.693907],[6.493669,46.721591],[6.511719,46.727137],[6.477005,46.730788],[6.51906,46.793278],[6.527685,46.79255],[6.585392,46.831219],[6.678569,46.843184],[6.715414,46.860485],[6.73875,46.856931],[6.636763,46.803456],[6.636259,46.795408],[6.65343,46.784793],[6.717702,46.806157],[6.760754,46.804117],[6.806825,46.836887],[6.857877,46.859703],[6.898611,46.895443],[7.026864,46.96295],[7.048237,46.989246],[7.028369,47.005047],[7.034599,47.010396],[6.993213,47.01842],[7.035301,47.05224],[7.10793,47.065428],[7.229472,47.133671],[7.235749,47.141354],[7.227433,47.144946],[7.241608,47.156055],[7.259508,47.153905],[7.357683,47.181327],[7.384923,47.202404],[7.445894,47.21234],[7.481432,47.211522],[7.486097,47.219836],[7.502839,47.219134],[7.512142,47.226419],[7.534098,47.222848],[7.54856,47.238122],[7.58989,47.250307],[7.640525,47.25276],[7.683058,47.268548],[7.706369,47.286826],[7.704435,47.295716],[7.714403,47.29073],[7.734377,47.294579],[7.776121,47.319976],[7.826881,47.333159],[7.847251,47.315141],[7.872194,47.312593],[7.86809,47.294444],[7.917441,47.304218],[7.930905,47.290065],[7.919477,47.279768],[7.924182,47.273574],[7.963574,47.276973],[7.952235,47.282918],[7.959304,47.288856],[7.937842,47.317995],[7.985175,47.332172],[7.982586,47.342209],[8.003322,47.348596],[8.017448,47.380218],[8.037518,47.385193],[8.05391,47.377196],[8.071553,47.380041],[8.073861,47.366036],[8.103462,47.349153],[8.111684,47.351034],[8.111001,47.364959],[8.086309,47.372742],[8.095454,47.381588],[8.080346,47.403007],[8.150798,47.411723],[8.162675,47.417254],[8.166952,47.430206],[8.169432,47.419682],[8.215147,47.419012],[8.216697,47.425889],[8.201184,47.429868],[8.189941,47.449572],[8.219226,47.453546],[8.216111,47.470702],[8.232872,47.475146],[8.243935,47.462471],[8.267918,47.456],[8.303006,47.467019],[8.301785,47.458946],[8.331925,47.439566],[8.348454,47.458201],[8.344112,47.472955],[8.42919,47.471313],[8.449247,47.485632],[8.379343,47.492689],[8.317823,47.483794],[8.25525,47.506844],[8.23877,47.498378],[8.239151,47.485105],[8.227166,47.485959],[8.232852,47.491918],[8.222394,47.496434],[8.190298,47.485652],[8.16387,47.466537],[8.154601,47.475944],[8.16268,47.491018],[8.143527,47.496748],[8.16137,47.513818],[8.210474,47.515616],[8.222572,47.526006],[8.225859,47.555405],[8.251731,47.566305],[8.29652,47.554005],[8.302915,47.566011],[8.317692,47.56391],[8.322118,47.571],[8.382671,47.564044],[8.400343,47.575112],[8.43515,47.561156],[8.477497,47.575868],[8.509565,47.57607],[8.488667,47.587923],[8.46682,47.584278],[8.456637,47.60233],[8.479191,47.615172],[8.508302,47.617542],[8.516394,47.634107],[8.557866,47.62445],[8.574482,47.612272],[8.562212,47.600286],[8.582573,47.59612],[8.604938,47.613466],[8.596004,47.643392],[8.607561,47.652429],[8.614018,47.644518],[8.6029,47.639483],[8.616022,47.637767],[8.628776,47.64932],[8.606623,47.672178],[8.595906,47.669228],[8.588304,47.674155],[8.616348,47.693211],[8.612681,47.706894],[8.629638,47.716851],[8.637025,47.713809],[8.642645,47.723265],[8.688873,47.736229],[8.696197,47.745014],[8.676804,47.768055],[8.648278,47.776202],[8.651973,47.799475],[8.657537,47.791799],[8.681211,47.786576],[8.688819,47.758388],[8.695091,47.755712],[8.71413,47.76538],[8.741067,47.751942],[8.739467,47.746518],[8.72351,47.745643],[8.711135,47.730129],[8.736301,47.716359],[8.727933,47.692905],[8.796088,47.675265],[8.796815,47.688101],[8.810139,47.693359],[8.791878,47.704996],[8.769313,47.706902],[8.769789,47.717888],[8.785093,47.727471],[8.799176,47.727154],[8.796606,47.73456],[8.806702,47.738309],[8.812163,47.730375],[8.80488,47.724524],[8.826194,47.717859],[8.819037,47.712772],[8.843169,47.71215],[8.848374,47.70338],[8.872972,47.703916],[8.874444,47.694292],[8.851575,47.697522],[8.857746,47.692635],[8.850581,47.681209],[8.87352,47.669999],[8.875464,47.654747],[8.896485,47.647963],[8.940904,47.655925],[9.023721,47.686532],[9.100432,47.677409],[9.13933,47.663893],[9.151125,47.667543],[9.175917,47.653996],[9.267698,47.656231],[9.445125,47.594825],[9.514681,47.536921],[9.550563,47.537172],[9.5622,47.495915],[9.595001,47.463414],[9.602703,47.461947],[9.608698,47.47067],[9.622422,47.457528],[9.658923,47.452262],[9.644298,47.434835],[9.651612,47.404593],[9.674038,47.390491],[9.668756,47.376171],[9.649925,47.373584],[9.645821,47.393858],[9.597073,47.339542],[9.541058,47.326313],[9.531726,47.33513],[9.522272,47.333751],[9.523903,47.340683],[9.455195,47.325467],[9.466719,47.287785],[9.460907,47.28174],[9.446314,47.283509],[9.405044,47.271464],[9.413824,47.288793],[9.364745,47.271087],[9.331538,47.268311],[9.330866,47.259741],[9.299461,47.235791],[9.251495,47.218323],[9.234131,47.190263],[9.216169,47.20081],[9.201452,47.19909],[9.197279,47.211286],[9.178534,47.213435],[9.12963,47.190633],[9.094989,47.182711],[9.05224,47.15177],[9.048491,47.129121],[8.969498,47.134516],[8.936978,47.112973],[8.876454,47.117562],[8.844253,47.102342],[8.810366,47.097326],[8.819079,47.091199],[8.809396,47.084142],[8.781778,47.10365],[8.784972,47.113445],[8.75575,47.141233],[8.728945,47.132846],[8.722995,47.123551],[8.732704,47.119285],[8.717981,47.094543],[8.680382,47.099723],[8.673458,47.090583],[8.625167,47.075298],[8.610978,47.051469],[8.579232,47.047376],[8.54399,47.05799],[8.527793,47.070652],[8.514834,47.061415],[8.46421,47.096159],[8.362615,47.033343],[8.333152,47.054042],[8.309353,47.053452],[8.330372,47.043015],[8.342486,47.018063],[8.341609,47.005241],[8.330572,47.000638],[8.317247,47.011237],[8.306698,47.008747],[8.316783,46.989841],[8.312003,46.979698],[8.248666,46.986664],[8.214665,46.975167],[8.183359,46.975781],[8.146552,46.959001],[8.151412,46.954431],[8.177109,46.965571],[8.212089,46.963596],[8.213523,46.932486],[8.226007,46.922457],[8.210464,46.90286],[8.181777,46.894254],[8.181725,46.883962],[8.144014,46.876923],[8.141502,46.863119],[8.110578,46.854653],[8.115944,46.846421],[8.098338,46.842616],[8.088351,46.82954],[8.109274,46.831403],[8.116789,46.821775],[8.092772,46.800326],[8.037236,46.801466],[7.988472,46.787634],[7.908232,46.72896],[7.858621,46.738858],[7.850626,46.723804],[7.81742,46.703936],[7.819293,46.718806],[7.805716,46.711685],[7.803481,46.722385],[7.830928,46.760418],[7.852786,46.761114],[7.852225,46.76845],[7.870244,46.778986],[7.898719,46.773896],[7.904332,46.781647],[7.948771,46.797277],[7.926861,46.797511],[7.931647,46.803174],[7.916295,46.812173],[7.865845,46.813539],[7.829832,46.79719],[7.830166,46.786051],[7.808102,46.787292],[7.799033,46.773111],[7.76785,46.775455],[7.768212,46.762585],[7.741105,46.74434],[7.733924,46.726408],[7.764084,46.731161],[7.732223,46.701742],[7.751357,46.681105],[7.810897,46.682309],[7.829929,46.670102],[7.819935,46.660759],[7.803157,46.664724],[7.773689,46.655532],[7.750801,46.657282],[7.704621,46.672943],[7.70333,46.682863],[7.66413,46.696934],[7.643233,46.717285],[7.630854,46.709099],[7.630817,46.687708],[7.612282,46.700515],[7.594598,46.699403],[7.536564,46.723605],[7.513533,46.725469],[7.507086,46.74186],[7.462354,46.748883],[7.452808,46.759601],[7.433642,46.758619],[7.423147,46.764959],[7.412381,46.754944],[7.40322,46.762934],[7.368452,46.751754],[7.304362,46.756542],[7.298411,46.741514],[7.242574,46.737664],[7.238993,46.729644],[7.224547,46.730554],[7.218368,46.739057],[7.205421,46.737203],[7.197763,46.721246],[7.176304,46.725576],[7.144899,46.700477],[7.095736,46.677719],[7.100302,46.619995],[7.111737,46.605199],[7.098508,46.586107],[7.072177,46.581978],[7.024352,46.614695],[6.977178,46.611375],[6.924899,46.576494],[6.911765,46.516272],[6.900537,46.515245],[6.857473,46.476438],[6.812565,46.473137],[6.832391,46.467603],[6.860156,46.446747],[6.901306,46.440095],[6.919048,46.428667],[6.930859,46.409893],[6.922924,46.396989],[6.86025,46.395208],[6.856649,46.385498],[6.829446,46.385758],[6.805294,46.394165],[6.821073,46.427161],[6.681869,46.45434],[6.519115,46.456378],[6.425629,46.415819],[6.335198,46.40373],[6.252964,46.360436],[6.219552,46.311895],[6.248913,46.301837],[6.252925,46.290521],[6.237605,46.277584],[6.260151,46.25169],[6.279017,46.251414],[6.294886,46.264575],[6.295044,46.256295],[6.309771,46.256213],[6.310281,46.243985],[6.295726,46.226047],[6.24954,46.205015],[6.222032,46.200648],[6.187117,46.18034],[6.186237,46.164576],[6.136454,46.141575],[6.09849,46.143834],[6.091808,46.151961],[6.05226,46.151358],[6.035883,46.136098]],[[7.967299,46.805612],[7.974732,46.83403],[8.000189,46.85978],[7.984913,46.860128],[7.94948,46.837891],[7.938957,46.812792],[7.967299,46.805612]],[[8.041878,46.884344],[8.081397,46.919699],[8.132819,46.941981],[8.110608,46.942522],[8.092277,46.927438],[8.057737,46.917068],[8.031563,46.883314],[8.041878,46.884344]],[[8.67542,47.700383],[8.658519,47.691388],[8.663409,47.685819],[8.690093,47.695459],[8.71785,47.690768],[8.701288,47.715189],[8.686338,47.708541],[8.664595,47.71336],[8.67542,47.700383]]],[[[7.942507,47.380594],[7.940554,47.389965],[7.995098,47.403452],[7.990869,47.411587],[8.044749,47.412135],[8.045465,47.404869],[8.018822,47.386531],[7.980965,47.371137],[7.939994,47.366599],[7.931946,47.37027],[7.942507,47.380594]]]]}},{"type":"Feature","properties":{"id":"alpen","name":"Alpen","nameEn":"Alps","percent":60,"color":"#89a9d8","descriptionDe":"Mächtiger, meist bis auf 2100 m bewaldeter Gebirgswall im Süden des Landes. Die über 4000 m hohen Gipfel tragen ganzjährig Schnee und tiefe Täler durchziehen das Gebiet.","descriptionEn":"A vast mountain barrier in the south, generally forested up to 2,100 m. Peaks above 4,000 m hold snow year-round, and deep valleys cut through the region."},"geometry":{"type":"MultiPolygon","coordinates":[[[[8.10824,46.111639],[8.03472,46.10087],[8.021685,46.069498],[8.034329,46.043795],[8.011913,46.031182],[8.012358,46.012091],[8.001088,46.012238],[7.989112,45.996015],[7.908684,45.996964],[7.893843,45.978603],[7.878099,45.973565],[7.868391,45.936676],[7.877043,45.927125],[7.863556,45.916698],[7.821935,45.927012],[7.799544,45.917326],[7.769375,45.936966],[7.748086,45.940895],[7.73488,45.923794],[7.72012,45.923581],[7.707477,45.934541],[7.709699,45.94828],[7.68134,45.956756],[7.668192,45.973964],[7.586969,45.970926],[7.570109,45.987678],[7.545931,45.983818],[7.54634,45.962409],[7.538433,45.954905],[7.49926,45.962418],[7.472009,45.948037],[7.472001,45.934364],[7.444734,45.931517],[7.426586,45.915146],[7.411099,45.908595],[7.401651,45.911335],[7.385686,45.897009],[7.344273,45.915287],[7.323624,45.910248],[7.29447,45.921845],[7.256854,45.888329],[7.248851,45.893191],[7.216405,45.888858],[7.200231,45.875557],[7.196848,45.860511],[7.17527,45.862981],[7.153619,45.879227],[7.118101,45.85919],[7.101518,45.859186],[7.095337,45.875916],[7.043999,45.922955],[7.037191,45.954927],[7.008513,45.969016],[7.023402,45.97894],[7.010549,45.997315],[6.985219,46.00434],[6.981387,46.019554],[6.962918,46.030452],[6.950242,46.051466],[6.935018,46.056148],[6.93736,46.0643],[6.924596,46.065213],[6.889678,46.042038],[6.872107,46.051054],[6.880163,46.069401],[6.891127,46.074114],[6.882382,46.095229],[6.900369,46.12395],[6.852307,46.126454],[6.838847,46.132833],[6.814923,46.129284],[6.796305,46.13912],[6.791686,46.163068],[6.812538,46.181537],[6.803721,46.204679],[6.821132,46.232347],[6.855432,46.255217],[6.864976,46.2812],[6.858486,46.291107],[6.847403,46.289943],[6.830252,46.300063],[6.819821,46.315614],[6.800883,46.319692],[6.79648,46.333071],[6.784562,46.33267],[6.771488,46.360975],[6.803825,46.376742],[6.805294,46.394165],[6.829446,46.385758],[6.856649,46.385498],[6.86025,46.395208],[6.918285,46.395103],[6.93087,46.408678],[6.903933,46.438672],[6.860156,46.446747],[6.832391,46.467603],[6.812565,46.473137],[6.857473,46.476438],[6.900537,46.515245],[6.911765,46.516272],[6.924899,46.576494],[6.977178,46.611375],[7.024352,46.614695],[7.072177,46.581978],[7.098508,46.586107],[7.111737,46.605199],[7.095247,46.643971],[7.092273,46.670652],[7.099491,46.681197],[7.144899,46.700477],[7.176304,46.725576],[7.197763,46.721246],[7.205421,46.737203],[7.218368,46.739057],[7.224547,46.730554],[7.238993,46.729644],[7.242574,46.737664],[7.298411,46.741514],[7.304362,46.756542],[7.362425,46.756194],[7.366164,46.751651],[7.40322,46.762934],[7.412381,46.754944],[7.423147,46.764959],[7.433642,46.758619],[7.452808,46.759601],[7.462354,46.748883],[7.507086,46.74186],[7.513533,46.725469],[7.536564,46.723605],[7.594598,46.699403],[7.612282,46.700515],[7.630817,46.687708],[7.630854,46.709099],[7.643233,46.717285],[7.66413,46.696934],[7.70333,46.682863],[7.704621,46.672943],[7.750801,46.657282],[7.773689,46.655532],[7.803157,46.664724],[7.819935,46.660759],[7.829929,46.670102],[7.810897,46.682309],[7.751357,46.681105],[7.732223,46.701742],[7.764084,46.731161],[7.733924,46.726408],[7.741105,46.74434],[7.768212,46.762585],[7.76785,46.775455],[7.799033,46.773111],[7.808102,46.787292],[7.830166,46.786051],[7.829832,46.79719],[7.865845,46.813539],[7.916295,46.812173],[7.931647,46.803174],[7.926861,46.797511],[7.948771,46.797277],[7.904332,46.781647],[7.898719,46.773896],[7.870244,46.778986],[7.852225,46.76845],[7.852786,46.761114],[7.830928,46.760418],[7.803481,46.722385],[7.805716,46.711685],[7.819293,46.718806],[7.81742,46.703936],[7.850626,46.723804],[7.858621,46.738858],[7.908232,46.72896],[7.988472,46.787634],[8.037236,46.801466],[8.092772,46.800326],[8.116789,46.821775],[8.109274,46.831403],[8.088351,46.82954],[8.098338,46.842616],[8.115944,46.846421],[8.110578,46.854653],[8.141502,46.863119],[8.144014,46.876923],[8.181725,46.883962],[8.181777,46.894254],[8.210464,46.90286],[8.226007,46.922457],[8.213523,46.932486],[8.212089,46.963596],[8.177109,46.965571],[8.151412,46.954431],[8.146552,46.959001],[8.183359,46.975781],[8.214665,46.975167],[8.248666,46.986664],[8.312003,46.979698],[8.316783,46.989841],[8.306698,47.008747],[8.317247,47.011237],[8.330572,47.000638],[8.341609,47.005241],[8.342486,47.018063],[8.330372,47.043015],[8.309353,47.053452],[8.333152,47.054042],[8.362615,47.033343],[8.46421,47.096159],[8.514834,47.061415],[8.527793,47.070652],[8.54399,47.05799],[8.579232,47.047376],[8.610978,47.051469],[8.625167,47.075298],[8.673458,47.090583],[8.680382,47.099723],[8.717981,47.094543],[8.732704,47.119285],[8.722995,47.123551],[8.728945,47.132846],[8.75575,47.141233],[8.784972,47.113445],[8.781778,47.10365],[8.809396,47.084142],[8.819079,47.091199],[8.810366,47.097326],[8.844253,47.102342],[8.876454,47.117562],[8.936978,47.112973],[8.969498,47.134516],[9.048491,47.129121],[9.05224,47.15177],[9.091586,47.181319],[9.158471,47.201266],[9.178534,47.213435],[9.197279,47.211286],[9.201452,47.19909],[9.216169,47.20081],[9.234131,47.190263],[9.251495,47.218323],[9.299461,47.235791],[9.330866,47.259741],[9.331538,47.268311],[9.364745,47.271087],[9.413824,47.288793],[9.405044,47.271464],[9.446314,47.283509],[9.460907,47.28174],[9.462614,47.31556],[9.453224,47.324096],[9.523903,47.340683],[9.522272,47.333751],[9.531726,47.33513],[9.541058,47.326313],[9.597073,47.339542],[9.583869,47.31302],[9.55612,47.298218],[9.530702,47.270627],[9.48971,47.196279],[9.490319,47.165702],[9.508583,47.139857],[9.51958,47.09834],[9.513529,47.085638],[9.472378,47.065031],[9.475787,47.051755],[9.482274,47.056121],[9.485748,47.049094],[9.491308,47.056255],[9.539753,47.065151],[9.55894,47.048432],[9.603471,47.061777],[9.632688,47.051253],[9.645056,47.059779],[9.68184,47.062102],[9.718212,47.043379],[9.74185,47.04268],[9.748079,47.036928],[9.784916,47.038491],[9.836265,47.012721],[9.859747,47.023217],[9.876436,47.021015],[9.870876,47.009289],[9.888778,47.000735],[9.892272,46.990356],[9.870733,46.963217],[9.878717,46.956748],[9.87613,46.934635],[9.937482,46.913298],[9.977869,46.915891],[9.990308,46.902359],[10.017901,46.902054],[10.051906,46.876762],[10.052038,46.863591],[10.087382,46.861314],[10.105443,46.840839],[10.122672,46.848176],[10.169064,46.850667],[10.193662,46.866451],[10.232669,46.866301],[10.23451,46.885299],[10.225792,46.8964],[10.242205,46.919366],[10.240795,46.931398],[10.296872,46.919959],[10.316057,46.925187],[10.309356,46.950208],[10.327822,46.953983],[10.346452,46.9896],[10.372119,46.990715],[10.384918,46.99997],[10.426844,46.975404],[10.426247,46.957415],[10.455527,46.95287],[10.489347,46.937797],[10.486213,46.915465],[10.46469,46.884285],[10.471257,46.872966],[10.466592,46.836071],[10.456595,46.8302],[10.450677,46.804145],[10.422708,46.788253],[10.441701,46.771897],[10.44263,46.754021],[10.400721,46.733828],[10.418775,46.719029],[10.416025,46.709031],[10.381808,46.684315],[10.402263,46.636824],[10.44606,46.641281],[10.492044,46.615397],[10.471546,46.542875],[10.459087,46.541332],[10.452778,46.530694],[10.418243,46.551346],[10.397108,46.543954],[10.351844,46.555867],[10.338178,46.542746],[10.325454,46.551757],[10.311474,46.546713],[10.296059,46.549986],[10.287455,46.570354],[10.269516,46.577674],[10.254117,46.571255],[10.246054,46.575018],[10.242071,46.592218],[10.258874,46.610453],[10.238875,46.635362],[10.215313,46.616959],[10.192749,46.625944],[10.127639,46.60509],[10.102349,46.610728],[10.100739,46.58276],[10.078658,46.575133],[10.08238,46.563561],[10.043957,46.540125],[10.05399,46.522596],[10.042371,46.510133],[10.049025,46.499804],[10.04284,46.480066],[10.054342,46.464638],[10.042012,46.442709],[10.056463,46.440779],[10.060305,46.4284],[10.077176,46.428212],[10.080798,46.42107],[10.128922,46.431751],[10.143181,46.428333],[10.14765,46.414236],[10.161156,46.415432],[10.166881,46.407396],[10.161927,46.387464],[10.127234,46.377471],[10.129099,46.360879],[10.108557,46.352423],[10.105943,46.342208],[10.116593,46.314098],[10.154211,46.292799],[10.176499,46.258294],[10.1323,46.224892],[10.088567,46.227811],[10.070833,46.217167],[10.043944,46.229649],[10.060618,46.248272],[10.055526,46.265853],[9.995908,46.284952],[9.991697,46.296295],[10.000762,46.301543],[10.000056,46.313185],[9.979979,46.323141],[9.996288,46.351179],[9.964454,46.363782],[9.952801,46.379325],[9.925236,46.365962],[9.906394,46.380761],[9.868334,46.36236],[9.832731,46.361252],[9.777526,46.334798],[9.736885,46.350708],[9.722943,46.34071],[9.727576,46.332708],[9.717277,46.323971],[9.725801,46.313101],[9.709833,46.291816],[9.688299,46.293632],[9.675344,46.302868],[9.634674,46.286003],[9.610358,46.294583],[9.578206,46.295441],[9.560097,46.306173],[9.549571,46.302346],[9.518452,46.327088],[9.496272,46.364439],[9.461189,46.375858],[9.4688,46.388937],[9.454456,46.420952],[9.465582,46.469507],[9.462866,46.480502],[9.449088,46.484383],[9.461028,46.48485],[9.463552,46.508877],[9.434183,46.497914],[9.411663,46.46689],[9.376408,46.48468],[9.368452,46.49422],[9.373353,46.503962],[9.363225,46.509383],[9.282242,46.496473],[9.274216,46.483619],[9.278213,46.461728],[9.246997,46.4468],[9.248249,46.433287],[9.279965,46.414637],[9.275813,46.394982],[9.28439,46.385183],[9.276067,46.367774],[9.282695,46.357997],[9.296205,46.355685],[9.29988,46.343594],[9.292128,46.336238],[9.299247,46.327544],[9.281541,46.309372],[9.284854,46.297056],[9.250323,46.266314],[9.248414,46.233752],[9.221054,46.229232],[9.218745,46.214365],[9.202295,46.20841],[9.194704,46.179258],[9.18395,46.170618],[9.16122,46.17073],[9.12096,46.13451],[9.072384,46.117966],[9.089563,46.08708],[9.076947,46.06396],[9.023015,46.053017],[9.009552,46.03737],[9.028434,45.993648],[9.008051,45.980618],[8.995297,45.980498],[8.988982,45.970328],[9.013992,45.960578],[9.01932,45.92841],[9.059906,45.920949],[9.067786,45.910669],[9.076575,45.911486],[9.076947,45.899334],[9.089101,45.900704],[9.066352,45.87542],[9.054795,45.873563],[9.031756,45.82099],[8.993928,45.822033],[8.997471,45.834877],[8.98674,45.838642],[8.970114,45.832374],[8.956328,45.843466],[8.912249,45.83045],[8.918843,45.847322],[8.945325,45.867006],[8.933671,45.870382],[8.91434,45.917782],[8.892833,45.932116],[8.894739,45.957759],[8.868498,45.960615],[8.831629,45.987979],[8.78593,45.989137],[8.805891,46.021942],[8.827102,46.032316],[8.835403,46.043756],[8.828408,46.046587],[8.844181,46.048478],[8.854573,46.061555],[8.852122,46.075711],[8.806029,46.101335],[8.799825,46.094726],[8.783065,46.094207],[8.76003,46.101569],[8.742352,46.122242],[8.71404,46.097213],[8.657615,46.112726],[8.64748,46.123585],[8.611821,46.121713],[8.609705,46.132872],[8.592967,46.143004],[8.603446,46.154908],[8.572874,46.165115],[8.563682,46.183992],[8.540241,46.198212],[8.532548,46.218349],[8.471463,46.231941],[8.463898,46.244632],[8.444463,46.248944],[8.441866,46.254428],[8.455707,46.264291],[8.427749,46.298302],[8.465347,46.333836],[8.461596,46.353302],[8.470172,46.362221],[8.460994,46.386856],[8.471139,46.395976],[8.456887,46.422959],[8.465876,46.444218],[8.44613,46.463692],[8.392902,46.451513],[8.366969,46.451997],[8.32583,46.425184],[8.307692,46.425819],[8.288624,46.408709],[8.315609,46.398904],[8.312761,46.377155],[8.284086,46.363698],[8.264307,46.364519],[8.262792,46.346043],[8.224082,46.334462],[8.212105,46.309697],[8.198655,46.302249],[8.159608,46.296054],[8.13814,46.301991],[8.085671,46.266545],[8.082404,46.256938],[8.11017,46.249508],[8.115712,46.236368],[8.138917,46.226196],[8.165973,46.180056],[8.151044,46.165416],[8.150181,46.140907],[8.115392,46.130308],[8.10824,46.111639]],[[8.977124,45.983064],[8.977124,45.983064],[8.979008,45.98476],[8.977124,45.983064]],[[8.977122,45.983062],[8.966877,45.984109],[8.958596,45.964787],[8.975733,45.961675],[8.977122,45.983062]],[[8.968175,45.96304],[8.968178,45.963041],[8.968177,45.963041],[8.968175,45.96304]]],[[[7.940162,46.81128],[7.94948,46.837891],[7.984913,46.860128],[8.000189,46.85978],[7.974732,46.83403],[7.967299,46.805612],[7.940162,46.81128]]],[[[8.031563,46.883314],[8.057737,46.917068],[8.092277,46.927438],[8.110608,46.942522],[8.132819,46.941981],[8.081397,46.919699],[8.031563,46.883314]]],[[[9.645821,47.393858],[9.649925,47.373584],[9.668756,47.376171],[9.626252,47.365177],[9.645821,47.393858]]]]}}]}